{"type": "FeatureCollection", "features": [ {"type": "Feature", "properties": {"norad_id": 65942, "name": "BOTAN", "group": "stations", "lat": 46.652069441320144, "lon": -49.69881737540013, "alt_km": 378.64889822704663, "timestamp": "2025-12-03T04:52:28.438534+00:00", "meta": {"OBJECT_NAME": "BOTAN", "OBJECT_ID": "1998-067XP", "EPOCH": "2025-12-01T23:11:25.783296", "MEAN_MOTION": 15.60127991, "ECCENTRICITY": 0.00045427, "INCLINATION": 51.629, "RA_OF_ASC_NODE": 193.6047, "ARG_OF_PERICENTER": 166.4057, "MEAN_ANOMALY": 193.706, "EPHEMERIS_TYPE": 0, "CLASSIFICATION_TYPE": "U", "NORAD_CAT_ID": 65942, "ELEMENT_SET_NO": 999, "REV_AT_EPOCH": 818, "BSTAR": 0.0011466978, "MEAN_MOTION_DOT": 0.00095633, "MEAN_MOTION_DDOT": 0}, "tle": {"line1": "1 65942U 98067XP  25335.96627064  .00095633  00000+0  11467-2 0  9990", "line2": "2 65942  51.6290 193.6047 0004542 166.4057 193.7060 15.60127991  8189"}}, "geometry": {"type": "Point", "coordinates": [-49.69881737540013, 46.652069441320144]}}, {"type": "Feature", "properties": {"norad_id": 65943, "name": "E-KAGAKU-1", "group": "stations", "lat": -46.2512355334412, "lon": 63.70735687571854, "alt_km": 398.8795912633468, "timestamp": "2025-12-03T04:52:28.438544+00:00", "meta": {"OBJECT_NAME": "E-KAGAKU-1", "OBJECT_ID": "1998-067XQ", "EPOCH": "2025-12-01T21:01:24.466368", "MEAN_MOTION": 15.57573003, "ECCENTRICITY": 0.0003749, "INCLINATION": 51.6307, "RA_OF_ASC_NODE": 194.5023, "ARG_OF_PERICENTER": 145.4218, "MEAN_ANOMALY": 214.7019, "EPHEMERIS_TYPE": 0, "CLASSIFICATION_TYPE": "U", "NORAD_CAT_ID": 65943, "ELEMENT_SET_NO": 999, "REV_AT_EPOCH": 816, "BSTAR": 0.00091790589, "MEAN_MOTION_DOT": 0.00069131, "MEAN_MOTION_DDOT": 0}, "tle": {"line1": "1 65943U 98067XQ  25335.87597762  .00069131  00000+0  91791-3 0  9995", "line2": "2 65943  51.6307 194.5023 0003749 145.4218 214.7019 15.57573003  8168"}}, "geometry": {"type": "Point", "coordinates": [63.70735687571854, -46.2512355334412]}}, {"type": "Feature", "properties": {"norad_id": 66052, "name": "HRC MONOBLOCK CAMERA", "group": "stations", "lat": 30.41056077622246, "lon": -143.26227734676405, "alt_km": 404.33004530884136, "timestamp": "2025-12-03T04:52:28.438558+00:00", "meta": {"OBJECT_NAME": "HRC MONOBLOCK CAMERA", "OBJECT_ID": "1998-067XR", "EPOCH": "2025-12-02T19:26:12.959808", "MEAN_MOTION": 15.53170703, "ECCENTRICITY": 0.0004432, "INCLINATION": 51.6293, "RA_OF_ASC_NODE": 190.983, "ARG_OF_PERICENTER": 144.6428, "MEAN_ANOMALY": 215.4856, "EPHEMERIS_TYPE": 0, "CLASSIFICATION_TYPE": "U", "NORAD_CAT_ID": 66052, "ELEMENT_SET_NO": 999, "REV_AT_EPOCH": 729, "BSTAR": 0.00062502, "MEAN_MOTION_DOT": 0.00039695, "MEAN_MOTION_DDOT": 0}, "tle": {"line1": "1 66052U 98067XR  25336.80987222  .00039695  00000+0  62502-3 0  9995", "line2": "2 66052  51.6293 190.9830 0004432 144.6428 215.4856 15.53170703  7290"}}, "geometry": {"type": "Point", "coordinates": [-143.26227734676405, 30.41056077622246]}}, {"type": "Feature", "properties": {"norad_id": 66174, "name": "HTV-X1", "group": "stations", "lat": 50.45888453138928, "lon": -96.63383545517902, "alt_km": 413.1131041300614, "timestamp": "2025-12-03T04:52:28.438596+00:00", "meta": {"OBJECT_NAME": "HTV-X1", "OBJECT_ID": "2025-241A", "EPOCH": "2025-12-02T02:12:50.598720", "MEAN_MOTION": 15.49237019, "ECCENTRICITY": 0.00036389, "INCLINATION": 51.6314, "RA_OF_ASC_NODE": 195.1903, "ARG_OF_PERICENTER": 193.8265, "MEAN_ANOMALY": 166.2625, "EPHEMERIS_TYPE": 0, "CLASSIFICATION_TYPE": "U", "NORAD_CAT_ID": 66174, "ELEMENT_SET_NO": 999, "REV_AT_EPOCH": 51, "BSTAR": 0.00017380747, "MEAN_MOTION_DOT": 9.217e-05, "MEAN_MOTION_DDOT": 0}, "tle": {"line1": "1 66174U 25241A   25336.09225230  .00009217  00000+0  17381-3 0  9991", "line2": "2 66174  51.6314 195.1903 0003638 193.8265 166.2625 15.49237019   513"}}, "geometry": {"type": "Point", "coordinates": [-96.63383545517902, 50.45888453138928]}}, {"type": "Feature", "properties": {"norad_id": 66515, "name": "SZ-21 MODULE", "group": "stations", "lat": -7.880268149838402, "lon": 65.17472296227274, "alt_km": 386.16919116884947, "timestamp": "2025-12-03T04:52:28.438619+00:00", "meta": {"OBJECT_NAME": "SZ-21 MODULE", "OBJECT_ID": "2025-246C", "EPOCH": "2025-12-02T13:34:42.175488", "MEAN_MOTION": 15.61741357, "ECCENTRICITY": 0.00057421, "INCLINATION": 41.4769, "RA_OF_ASC_NODE": 78.0744, "ARG_OF_PERICENTER": 200.196, "MEAN_ANOMALY": 159.8653, "EPHEMERIS_TYPE": 0, "CLASSIFICATION_TYPE": "U", "NORAD_CAT_ID": 66515, "ELEMENT_SET_NO": 999, "REV_AT_EPOCH": 285, "BSTAR": 0.00037188642, "MEAN_MOTION_DOT": 0.00032894, "MEAN_MOTION_DDOT": 0}, "tle": {"line1": "1 66515U 25246C   25336.56576592  .00032894  00000+0  37189-3 0  9992", "line2": "2 66515  41.4769  78.0744 0005742 200.1960 159.8653 15.61741357  2854"}}, "geometry": {"type": "Point", "coordinates": [65.17472296227274, -7.880268149838402]}}, {"type": "Feature", "properties": {"norad_id": 66645, "name": "SHENZHOU-22", "group": "stations", "lat": -8.033865970505095, "lon": -96.22614690931933, "alt_km": 396.51518106129333, "timestamp": "2025-12-03T04:52:28.438638+00:00", "meta": {"OBJECT_NAME": "SHENZHOU-22", "OBJECT_ID": "2025-272A", "EPOCH": "2025-12-02T14:12:45.225504", "MEAN_MOTION": 15.58538929, "ECCENTRICITY": 0.00102296, "INCLINATION": 41.4674, "RA_OF_ASC_NODE": 78.2835, "ARG_OF_PERICENTER": 314.561, "MEAN_ANOMALY": 45.4392, "EPHEMERIS_TYPE": 0, "CLASSIFICATION_TYPE": "U", "NORAD_CAT_ID": 66645, "ELEMENT_SET_NO": 999, "REV_AT_EPOCH": 26245, "BSTAR": 0.00035376094, "MEAN_MOTION_DOT": 0.00027659, "MEAN_MOTION_DDOT": 0}, "tle": {"line1": "1 66645U 25272A   25336.59219011  .00027659  00000+0  35376-3 0  9997", "line2": "2 66645  41.4674  78.2835 0010229 314.5610  45.4392 15.58538929262453"}}, "geometry": {"type": "Point", "coordinates": [-96.22614690931933, -8.033865970505095]}}, {"type": "Feature", "properties": {"norad_id": 66646, "name": "CZ-2F R/B", "group": "stations", "lat": 38.94303052126311, "lon": 137.4661253736904, "alt_km": 273.54662874205314, "timestamp": "2025-12-03T04:52:28.438658+00:00", "meta": {"OBJECT_NAME": "CZ-2F R/B", "OBJECT_ID": "2025-272B", "EPOCH": "2025-11-26T11:17:54.506400", "MEAN_MOTION": 16.01945612, "ECCENTRICITY": 0.01210796, "INCLINATION": 41.4431, "RA_OF_ASC_NODE": 114.9009, "ARG_OF_PERICENTER": 133.7676, "MEAN_ANOMALY": 227.3272, "EPHEMERIS_TYPE": 0, "CLASSIFICATION_TYPE": "U", "NORAD_CAT_ID": 66646, "ELEMENT_SET_NO": 999, "REV_AT_EPOCH": 21, "BSTAR": 0.00029319366, "MEAN_MOTION_DOT": 0.00449059, "MEAN_MOTION_DDOT": 7.567612e-06}, "tle": {"line1": "1 66646U 25272B   25330.47076975  .00449059  75676-5  29319-3 0  9998", "line2": "2 66646  41.4431 114.9009 0121079 133.7676 227.3272 16.01945612   217"}}, "geometry": {"type": "Point", "coordinates": [137.4661253736904, 38.94303052126311]}}, {"type": "Feature", "properties": {"norad_id": 66664, "name": "SOYUZ-MS 28", "group": "stations", "lat": 50.45889578393028, "lon": -96.6337572495829, "alt_km": 413.1134214381791, "timestamp": "2025-12-03T04:52:28.438678+00:00", "meta": {"OBJECT_NAME": "SOYUZ-MS 28", "OBJECT_ID": "2025-275A", "EPOCH": "2025-12-02T02:12:50.597856", "MEAN_MOTION": 15.49237019, "ECCENTRICITY": 0.0003639, "INCLINATION": 51.6314, "RA_OF_ASC_NODE": 195.1903, "ARG_OF_PERICENTER": 193.8265, "MEAN_ANOMALY": 166.2625, "EPHEMERIS_TYPE": 0, "CLASSIFICATION_TYPE": "U", "NORAD_CAT_ID": 66664, "ELEMENT_SET_NO": 999, "REV_AT_EPOCH": 79, "BSTAR": 0.00017381, "MEAN_MOTION_DOT": 9.217e-05, "MEAN_MOTION_DDOT": 0}, "tle": {"line1": "1 66664U 25275A   25336.09225229  .00009217  00000+0  17381-3 0  9990", "line2": "2 66664  51.6314 195.1903 0003639 193.8265 166.2625 15.49237019   798"}}, "geometry": {"type": "Point", "coordinates": [-96.6337572495829, 50.45889578393028]}}]}